STARLINK-31166          
1 58789U 24012C   26068.27101481 -.00000258  00000+0  13935-6 0  9994
2 58789  43.0012 167.4663 0001416 296.9428  63.1279 15.27574391121178
FLOCK 4G-24             
1 62637U 25009AE  26068.72509072  .00010513  00000+0  38996-3 0  9991
2 62637  97.4061 151.5140 0001802 280.2808  79.8228 15.27784978 63732
